{
    "links": {
        "self": "http://www.neowsapp.com/rest/v1/neo/3388411?api_key=iIulBulltgU6a56xZRHN4H3l9WmuAYTsLGpBGhQ2"
    },
    "id": "3388411",
    "neo_reference_id": "3388411",
    "name": "(2007 TH72)",
    "designation": "2007 TH72",
    "nasa_jpl_url": "http://ssd.jpl.nasa.gov/sbdb.cgi?sstr=3388411",
    "absolute_magnitude_h": 24.2,
    "estimated_diameter": {
        "kilometers": {
            "estimated_diameter_min": 0.0384197891,
            "estimated_diameter_max": 0.0859092601
        },
        "meters": {
            "estimated_diameter_min": 38.4197891064,
            "estimated_diameter_max": 85.9092601232
        },
        "miles": {
            "estimated_diameter_min": 0.0238729428,
            "estimated_diameter_max": 0.0533815229
        },
        "feet": {
            "estimated_diameter_min": 126.0491808919,
            "estimated_diameter_max": 281.8545369825
        }
    },
    "is_potentially_hazardous_asteroid": false,
    "close_approach_data": [
        {
            "close_approach_date": "1941-08-24",
            "close_approach_date_full": "1941-Aug-24 23:45",
            "epoch_date_close_approach": -894759300000,
            "relative_velocity": {
                "kilometers_per_second": "13.8621904112",
                "kilometers_per_hour": "49903.8854803002",
                "miles_per_hour": "31008.333730801"
            },
            "miss_distance": {
                "astronomical": "0.2478851584",
                "lunar": "96.4273266176",
                "kilometers": "37083091.701252608",
                "miles": "23042364.6945096704"
            },
            "orbiting_body": "Earth"
        },
        {
            "close_approach_date": "1981-10-23",
            "close_approach_date_full": "1981-Oct-23 12:21",
            "epoch_date_close_approach": 372687660000,
            "relative_velocity": {
                "kilometers_per_second": "13.8600579638",
                "kilometers_per_hour": "49896.2086696948",
                "miles_per_hour": "31003.5636592334"
            },
            "miss_distance": {
                "astronomical": "0.0698439248",
                "lunar": "27.1692867472",
                "kilometers": "10448502.382520176",
                "miles": "6492398.3239873888"
            },
            "orbiting_body": "Venus"
        },
        {
            "close_approach_date": "2007-10-10",
            "close_approach_date_full": "2007-Oct-10 02:32",
            "epoch_date_close_approach": 1191983520000,
            "relative_velocity": {
                "kilometers_per_second": "17.9930434191",
                "kilometers_per_hour": "64774.9563086225",
                "miles_per_hour": "40248.6388240993"
            },
            "miss_distance": {
                "astronomical": "0.0089649428",
                "lunar": "3.4873627492",
                "kilometers": "1341136.347551836",
                "miles": "833343.4837178968"
            },
            "orbiting_body": "Moon"
        },
        {
            "close_approach_date": "2007-10-10",
            "close_approach_date_full": "2007-Oct-10 07:25",
            "epoch_date_close_approach": 1192001100000,
            "relative_velocity": {
                "kilometers_per_second": "17.5994868943",
                "kilometers_per_hour": "63358.1528196474",
                "miles_per_hour": "39368.2922339637"
            },
            "miss_distance": {
                "astronomical": "0.0079968987",
                "lunar": "3.1107935943",
                "kilometers": "1196319.012125769",
                "miles": "743358.1641588522"
            },
            "orbiting_body": "Earth"
        }
    ],
    "orbital_data": {
        "orbit_id": "16",
        "orbit_determination_date": "2017-04-06 09:05:38",
        "first_observation_date": "2007-10-15",
        "last_observation_date": "2007-11-02",
        "data_arc_in_days": 18,
        "observations_used": 44,
        "orbit_uncertainty": "8",
        "minimum_orbit_intersection": "6.97555E-5",
        "jupiter_tisserand_invariant": "3.515",
        "epoch_osculation": "2454394.5",
        "eccentricity": ".6412450104347501",
        "semi_major_axis": "2.03549466066753",
        "inclination": "2.155784841734568",
        "ascending_node_longitude": "15.83064562924402",
        "orbital_period": "1060.726400415665",
        "perihelion_distance": ".7302438657479016",
        "perihelion_argument": "288.2635334040826",
        "aphelion_distance": "3.340745455587158",
        "perihelion_time": "2454339.219508824923",
        "mean_anomaly": "18.76164938972874",
        "mean_motion": ".3393900631293116",
        "equinox": "J2000",
        "orbit_class": {
            "orbit_class_type": "APO",
            "orbit_class_description": "Near-Earth asteroid orbits which cross the Earth’s orbit similar to that of 1862 Apollo",
            "orbit_class_range": "a (semi-major axis) > 1.0 AU; q (perihelion) < 1.017 AU"
        }
    },
    "is_sentry_object": false
}